STARLINK-36409          
1 67406U 26005C   26026.50001156 -.00219740  00000+0 -14563-2 0  9995
2 67406  42.9998 121.7384 0001711 291.0037 335.8546 15.75172777  3404
STARLINK-36510          
1 67407U 26005D   26026.50001156 -.00197902  00000+0 -13089-2 0  9993
2 67407  42.9999 121.7336 0001750 287.8206 340.9671 15.75154820  3402
STARLINK-36509          
1 67408U 26005E   26026.50001156 -.00156337  00000+0 -10297-2 0  9999
2 67408  43.0000 121.7281 0001486 272.6334 358.0924 15.75125348  3401
STARLINK-36507          
1 67409U 26005F   26026.50001156 -.00068709  00000+0 -44719-3 0  9992
2 67409  42.9999 121.7233 0000963 291.7468 340.9081 15.75073034  3401
STARLINK-36508          
1 67410U 26005G   26026.50001156 -.00077681  00000+0 -50645-3 0  9998
2 67410  43.0000 121.7187 0001059 288.4987 346.0818 15.75076214  3400
STARLINK-36503          
1 67411U 26005H   26026.50001156 -.00032927  00000+0 -21195-3 0  9991
2 67411  43.0000 121.7136 0001537 296.2729 340.2291 15.75052134  3144
STARLINK-36446          
1 67412U 26005J   26026.50001156  .00053756  00000+0  35142-3 0  9990
2 67412  43.0001 121.7090 0001589 279.3153 359.1129 15.75000074  3409
STARLINK-36442          
1 67413U 26005K   26026.50001156  .00045947  00000+0  30099-3 0  9990
2 67413  42.9996 121.7035 0001386 272.2154   8.1333 15.75008972  3401
STARLINK-36506          
1 67414U 26005L   26026.50001156  .00068049  00000+0  44402-3 0  9992
2 67414  42.9999 121.6988 0001213 274.3312   7.9583 15.74962132  3409
STARLINK-36468          
1 67415U 26005M   26026.50001156 -.00012595  00000+0 -79005-4 0  9998
2 67415  42.9998 121.6943 0001741 276.8668   7.3140 15.75038192  3355
STARLINK-36487          
1 67416U 26005N   26026.50001156  .00134078  00000+0  86544-3 0  9993
2 67416  42.9998 121.6891 0001839 304.1312 341.9697 15.74951023  3403
STARLINK-36374          
1 67417U 26005P   26026.50001156  .00052291  00000+0  34187-3 0  9996
2 67417  42.9999 121.6843 0001714 309.3514 338.6604 15.75007373  3407
