CCSDS_OMM_VERS = 2.0
CREATION_DATE  = 
ORIGINATOR     = 

OBJECT_NAME    = STARLINK-36409
OBJECT_ID      = 2026-005C
CENTER_NAME    = EARTH
REF_FRAME      = TEME
TIME_SYSTEM    = UTC
MEAN_ELEMENT_THEORY = SGP/SGP4

EPOCH          = 2026-01-26T12:00:00.998784
MEAN_MOTION    = 15.75172777
ECCENTRICITY   = .0001711
INCLINATION    = 42.9998
RA_OF_ASC_NODE = 121.7384
ARG_OF_PERICENTER = 291.0037
MEAN_ANOMALY   = 335.8546

EPHEMERIS_TYPE = 0
CLASSIFICATION_TYPE = U
NORAD_CAT_ID   = 67406
ELEMENT_SET_NO = 999
REV_AT_EPOCH   = 340
BSTAR          = -.14563E-2
MEAN_MOTION_DOT = -.21974E-2
MEAN_MOTION_DDOT = 0

CCSDS_OMM_VERS = 2.0
CREATION_DATE  = 
ORIGINATOR     = 

OBJECT_NAME    = STARLINK-36510
OBJECT_ID      = 2026-005D
CENTER_NAME    = EARTH
REF_FRAME      = TEME
TIME_SYSTEM    = UTC
MEAN_ELEMENT_THEORY = SGP/SGP4

EPOCH          = 2026-01-26T12:00:00.998784
MEAN_MOTION    = 15.75154820
ECCENTRICITY   = .000175
INCLINATION    = 42.9999
RA_OF_ASC_NODE = 121.7336
ARG_OF_PERICENTER = 287.8206
MEAN_ANOMALY   = 340.9671

EPHEMERIS_TYPE = 0
CLASSIFICATION_TYPE = U
NORAD_CAT_ID   = 67407
ELEMENT_SET_NO = 999
REV_AT_EPOCH   = 340
BSTAR          = -.13089E-2
MEAN_MOTION_DOT = -.197902E-2
MEAN_MOTION_DDOT = 0

CCSDS_OMM_VERS = 2.0
CREATION_DATE  = 
ORIGINATOR     = 

OBJECT_NAME    = STARLINK-36509
OBJECT_ID      = 2026-005E
CENTER_NAME    = EARTH
REF_FRAME      = TEME
TIME_SYSTEM    = UTC
MEAN_ELEMENT_THEORY = SGP/SGP4

EPOCH          = 2026-01-26T12:00:00.998784
MEAN_MOTION    = 15.75125348
ECCENTRICITY   = .0001486
INCLINATION    = 43.0000
RA_OF_ASC_NODE = 121.7281
ARG_OF_PERICENTER = 272.6334
MEAN_ANOMALY   = 358.0924

EPHEMERIS_TYPE = 0
CLASSIFICATION_TYPE = U
NORAD_CAT_ID   = 67408
ELEMENT_SET_NO = 999
REV_AT_EPOCH   = 340
BSTAR          = -.10297E-2
MEAN_MOTION_DOT = -.156337E-2
MEAN_MOTION_DDOT = 0

CCSDS_OMM_VERS = 2.0
CREATION_DATE  = 
ORIGINATOR     = 

OBJECT_NAME    = STARLINK-36507
OBJECT_ID      = 2026-005F
CENTER_NAME    = EARTH
REF_FRAME      = TEME
TIME_SYSTEM    = UTC
MEAN_ELEMENT_THEORY = SGP/SGP4

EPOCH          = 2026-01-26T12:00:00.998784
MEAN_MOTION    = 15.75073034
ECCENTRICITY   = .0000963
INCLINATION    = 42.9999
RA_OF_ASC_NODE = 121.7233
ARG_OF_PERICENTER = 291.7468
MEAN_ANOMALY   = 340.9081

EPHEMERIS_TYPE = 0
CLASSIFICATION_TYPE = U
NORAD_CAT_ID   = 67409
ELEMENT_SET_NO = 999
REV_AT_EPOCH   = 340
BSTAR          = -.44719E-3
MEAN_MOTION_DOT = -.68709E-3
MEAN_MOTION_DDOT = 0

CCSDS_OMM_VERS = 2.0
CREATION_DATE  = 
ORIGINATOR     = 

OBJECT_NAME    = STARLINK-36508
OBJECT_ID      = 2026-005G
CENTER_NAME    = EARTH
REF_FRAME      = TEME
TIME_SYSTEM    = UTC
MEAN_ELEMENT_THEORY = SGP/SGP4

EPOCH          = 2026-01-26T12:00:00.998784
MEAN_MOTION    = 15.75076214
ECCENTRICITY   = .0001059
INCLINATION    = 43.0000
RA_OF_ASC_NODE = 121.7187
ARG_OF_PERICENTER = 288.4987
MEAN_ANOMALY   = 346.0818

EPHEMERIS_TYPE = 0
CLASSIFICATION_TYPE = U
NORAD_CAT_ID   = 67410
ELEMENT_SET_NO = 999
REV_AT_EPOCH   = 340
BSTAR          = -.50645E-3
MEAN_MOTION_DOT = -.77681E-3
MEAN_MOTION_DDOT = 0

CCSDS_OMM_VERS = 2.0
CREATION_DATE  = 
ORIGINATOR     = 

OBJECT_NAME    = STARLINK-36503
OBJECT_ID      = 2026-005H
CENTER_NAME    = EARTH
REF_FRAME      = TEME
TIME_SYSTEM    = UTC
MEAN_ELEMENT_THEORY = SGP/SGP4

EPOCH          = 2026-01-26T12:00:00.998784
MEAN_MOTION    = 15.75052134
ECCENTRICITY   = .0001537
INCLINATION    = 43.0000
RA_OF_ASC_NODE = 121.7136
ARG_OF_PERICENTER = 296.2729
MEAN_ANOMALY   = 340.2291

EPHEMERIS_TYPE = 0
CLASSIFICATION_TYPE = U
NORAD_CAT_ID   = 67411
ELEMENT_SET_NO = 999
REV_AT_EPOCH   = 314
BSTAR          = -.21195E-3
MEAN_MOTION_DOT = -.32927E-3
MEAN_MOTION_DDOT = 0

CCSDS_OMM_VERS = 2.0
CREATION_DATE  = 
ORIGINATOR     = 

OBJECT_NAME    = STARLINK-36446
OBJECT_ID      = 2026-005J
CENTER_NAME    = EARTH
REF_FRAME      = TEME
TIME_SYSTEM    = UTC
MEAN_ELEMENT_THEORY = SGP/SGP4

EPOCH          = 2026-01-26T12:00:00.998784
MEAN_MOTION    = 15.75000074
ECCENTRICITY   = .0001589
INCLINATION    = 43.0001
RA_OF_ASC_NODE = 121.7090
ARG_OF_PERICENTER = 279.3153
MEAN_ANOMALY   = 359.1129

EPHEMERIS_TYPE = 0
CLASSIFICATION_TYPE = U
NORAD_CAT_ID   = 67412
ELEMENT_SET_NO = 999
REV_AT_EPOCH   = 340
BSTAR          = .35142E-3
MEAN_MOTION_DOT = .53756E-3
MEAN_MOTION_DDOT = 0

CCSDS_OMM_VERS = 2.0
CREATION_DATE  = 
ORIGINATOR     = 

OBJECT_NAME    = STARLINK-36442
OBJECT_ID      = 2026-005K
CENTER_NAME    = EARTH
REF_FRAME      = TEME
TIME_SYSTEM    = UTC
MEAN_ELEMENT_THEORY = SGP/SGP4

EPOCH          = 2026-01-26T12:00:00.998784
MEAN_MOTION    = 15.75008972
ECCENTRICITY   = .0001386
INCLINATION    = 42.9996
RA_OF_ASC_NODE = 121.7035
ARG_OF_PERICENTER = 272.2154
MEAN_ANOMALY   = 8.1333

EPHEMERIS_TYPE = 0
CLASSIFICATION_TYPE = U
NORAD_CAT_ID   = 67413
ELEMENT_SET_NO = 999
REV_AT_EPOCH   = 340
BSTAR          = .30099E-3
MEAN_MOTION_DOT = .45947E-3
MEAN_MOTION_DDOT = 0

CCSDS_OMM_VERS = 2.0
CREATION_DATE  = 
ORIGINATOR     = 

OBJECT_NAME    = STARLINK-36506
OBJECT_ID      = 2026-005L
CENTER_NAME    = EARTH
REF_FRAME      = TEME
TIME_SYSTEM    = UTC
MEAN_ELEMENT_THEORY = SGP/SGP4

EPOCH          = 2026-01-26T12:00:00.998784
MEAN_MOTION    = 15.74962132
ECCENTRICITY   = .0001213
INCLINATION    = 42.9999
RA_OF_ASC_NODE = 121.6988
ARG_OF_PERICENTER = 274.3312
MEAN_ANOMALY   = 7.9583

EPHEMERIS_TYPE = 0
CLASSIFICATION_TYPE = U
NORAD_CAT_ID   = 67414
ELEMENT_SET_NO = 999
REV_AT_EPOCH   = 340
BSTAR          = .44402E-3
MEAN_MOTION_DOT = .68049E-3
MEAN_MOTION_DDOT = 0

CCSDS_OMM_VERS = 2.0
CREATION_DATE  = 
ORIGINATOR     = 

OBJECT_NAME    = STARLINK-36468
OBJECT_ID      = 2026-005M
CENTER_NAME    = EARTH
REF_FRAME      = TEME
TIME_SYSTEM    = UTC
MEAN_ELEMENT_THEORY = SGP/SGP4

EPOCH          = 2026-01-26T12:00:00.998784
MEAN_MOTION    = 15.75038192
ECCENTRICITY   = .0001741
INCLINATION    = 42.9998
RA_OF_ASC_NODE = 121.6943
ARG_OF_PERICENTER = 276.8668
MEAN_ANOMALY   = 7.3140

EPHEMERIS_TYPE = 0
CLASSIFICATION_TYPE = U
NORAD_CAT_ID   = 67415
ELEMENT_SET_NO = 999
REV_AT_EPOCH   = 335
BSTAR          = -.79005E-4
MEAN_MOTION_DOT = -.12595E-3
MEAN_MOTION_DDOT = 0

CCSDS_OMM_VERS = 2.0
CREATION_DATE  = 
ORIGINATOR     = 

OBJECT_NAME    = STARLINK-36487
OBJECT_ID      = 2026-005N
CENTER_NAME    = EARTH
REF_FRAME      = TEME
TIME_SYSTEM    = UTC
MEAN_ELEMENT_THEORY = SGP/SGP4

EPOCH          = 2026-01-26T12:00:00.998784
MEAN_MOTION    = 15.74951023
ECCENTRICITY   = .0001839
INCLINATION    = 42.9998
RA_OF_ASC_NODE = 121.6891
ARG_OF_PERICENTER = 304.1312
MEAN_ANOMALY   = 341.9697

EPHEMERIS_TYPE = 0
CLASSIFICATION_TYPE = U
NORAD_CAT_ID   = 67416
ELEMENT_SET_NO = 999
REV_AT_EPOCH   = 340
BSTAR          = .86544E-3
MEAN_MOTION_DOT = .134078E-2
MEAN_MOTION_DDOT = 0

CCSDS_OMM_VERS = 2.0
CREATION_DATE  = 
ORIGINATOR     = 

OBJECT_NAME    = STARLINK-36374
OBJECT_ID      = 2026-005P
CENTER_NAME    = EARTH
REF_FRAME      = TEME
TIME_SYSTEM    = UTC
MEAN_ELEMENT_THEORY = SGP/SGP4

EPOCH          = 2026-01-26T12:00:00.998784
MEAN_MOTION    = 15.75007373
ECCENTRICITY   = .0001714
INCLINATION    = 42.9999
RA_OF_ASC_NODE = 121.6843
ARG_OF_PERICENTER = 309.3514
MEAN_ANOMALY   = 338.6604

EPHEMERIS_TYPE = 0
CLASSIFICATION_TYPE = U
NORAD_CAT_ID   = 67417
ELEMENT_SET_NO = 999
REV_AT_EPOCH   = 340
BSTAR          = .34187E-3
MEAN_MOTION_DOT = .52291E-3
MEAN_MOTION_DDOT = 0

